[{"OBJECT_NAME":"STARLINK-4496","OBJECT_ID":"2022-097AA","EPOCH":"2026-03-07T10:42:53.020800","MEAN_MOTION":15.08811962,"ECCENTRICITY":0.00013213,"INCLINATION":53.2178,"RA_OF_ASC_NODE":124.1914,"ARG_OF_PERICENTER":111.5905,"MEAN_ANOMALY":248.5228,"EPHEMERIS_TYPE":0,"CLASSIFICATION_TYPE":"U","NORAD_CAT_ID":53412,"ELEMENT_SET_NO":999,"REV_AT_EPOCH":19831,"BSTAR":-8.1864409e-5,"MEAN_MOTION_DOT":-1.589e-5,"MEAN_MOTION_DDOT":0},{"OBJECT_NAME":"STARLINK-4500","OBJECT_ID":"2022-097AB","EPOCH":"2026-03-07T10:53:27.063744","MEAN_MOTION":15.08843682,"ECCENTRICITY":0.00012704,"INCLINATION":53.2163,"RA_OF_ASC_NODE":124.1577,"ARG_OF_PERICENTER":81.3325,"MEAN_ANOMALY":278.7811,"EPHEMERIS_TYPE":0,"CLASSIFICATION_TYPE":"U","NORAD_CAT_ID":53413,"ELEMENT_SET_NO":999,"REV_AT_EPOCH":19831,"BSTAR":4.904273e-6,"MEAN_MOTION_DOT":-2.1e-6,"MEAN_MOTION_DDOT":0},{"OBJECT_NAME":"STARLINK-4304","OBJECT_ID":"2022-097AC","EPOCH":"2026-03-07T13:48:19.310400","MEAN_MOTION":15.08838794,"ECCENTRICITY":0.00013459,"INCLINATION":53.217,"RA_OF_ASC_NODE":123.6128,"ARG_OF_PERICENTER":85.1906,"MEAN_ANOMALY":274.924,"EPHEMERIS_TYPE":0,"CLASSIFICATION_TYPE":"U","NORAD_CAT_ID":53414,"ELEMENT_SET_NO":999,"REV_AT_EPOCH":19832,"BSTAR":2.5030847e-5,"MEAN_MOTION_DOT":1.1e-6,"MEAN_MOTION_DDOT":0},{"OBJECT_NAME":"STARLINK-4479","OBJECT_ID":"2022-097AD","EPOCH":"2026-03-07T13:43:00.554880","MEAN_MOTION":15.08845945,"ECCENTRICITY":0.00011946,"INCLINATION":53.2161,"RA_OF_ASC_NODE":123.6286,"ARG_OF_PERICENTER":93.0995,"MEAN_ANOMALY":267.0134,"EPHEMERIS_TYPE":0,"CLASSIFICATION_TYPE":"U","NORAD_CAT_ID":53415,"ELEMENT_SET_NO":999,"REV_AT_EPOCH":19830,"BSTAR":0.00013071899,"MEAN_MOTION_DOT":1.793e-5,"MEAN_MOTION_DDOT":0},{"OBJECT_NAME":"STARLINK-4480","OBJECT_ID":"2022-097AE","EPOCH":"2026-03-07T13:21:48.848832","MEAN_MOTION":15.08843985,"ECCENTRICITY":0.00012862,"INCLINATION":53.2158,"RA_OF_ASC_NODE":123.6464,"ARG_OF_PERICENTER":82.3144,"MEAN_ANOMALY":277.7994,"EPHEMERIS_TYPE":0,"CLASSIFICATION_TYPE":"U","NORAD_CAT_ID":53416,"ELEMENT_SET_NO":999,"REV_AT_EPOCH":19830,"BSTAR":0.0001184051,"MEAN_MOTION_DOT":1.597e-5,"MEAN_MOTION_DDOT":0},{"OBJECT_NAME":"STARLINK-4484","OBJECT_ID":"2022-097AF","EPOCH":"2026-03-07T08:51:34.017408","MEAN_MOTION":15.08846774,"ECCENTRICITY":0.00012356,"INCLINATION":53.2156,"RA_OF_ASC_NODE":124.5376,"ARG_OF_PERICENTER":83.8872,"MEAN_ANOMALY":276.2261,"EPHEMERIS_TYPE":0,"CLASSIFICATION_TYPE":"U","NORAD_CAT_ID":53417,"ELEMENT_SET_NO":999,"REV_AT_EPOCH":19827,"BSTAR":0.00034843642,"MEAN_MOTION_DOT":5.263e-5,"MEAN_MOTION_DDOT":0},{"OBJECT_NAME":"STARLINK-4481","OBJECT_ID":"2022-097AG","EPOCH":"2026-03-07T11:05:17.652768","MEAN_MOTION":15.08839316,"ECCENTRICITY":0.00013017,"INCLINATION":53.216,"RA_OF_ASC_NODE":113.6868,"ARG_OF_PERICENTER":88.6404,"MEAN_ANOMALY":271.4737,"EPHEMERIS_TYPE":0,"CLASSIFICATION_TYPE":"U","NORAD_CAT_ID":53418,"ELEMENT_SET_NO":999,"REV_AT_EPOCH":19846,"BSTAR":4.9439541e-5,"MEAN_MOTION_DOT":4.99e-6,"MEAN_MOTION_DDOT":0},{"OBJECT_NAME":"STARLINK-4476","OBJECT_ID":"2022-097AH","EPOCH":"2026-03-07T10:21:39.073536","MEAN_MOTION":15.08841753,"ECCENTRICITY":0.00013521,"INCLINATION":53.2164,"RA_OF_ASC_NODE":124.2567,"ARG_OF_PERICENTER":92.0616,"MEAN_ANOMALY":268.0531,"EPHEMERIS_TYPE":0,"CLASSIFICATION_TYPE":"U","NORAD_CAT_ID":53419,"ELEMENT_SET_NO":999,"REV_AT_EPOCH":19828,"BSTAR":6.3890867e-5,"MEAN_MOTION_DOT":7.29e-6,"MEAN_MOTION_DDOT":0},{"OBJECT_NAME":"STARLINK-4552","OBJECT_ID":"2022-097AJ","EPOCH":"2026-03-07T13:16:31.522368","MEAN_MOTION":15.08836135,"ECCENTRICITY":0.0001031,"INCLINATION":53.2162,"RA_OF_ASC_NODE":123.7129,"ARG_OF_PERICENTER":100.4924,"MEAN_ANOMALY":259.6184,"EPHEMERIS_TYPE":0,"CLASSIFICATION_TYPE":"U","NORAD_CAT_ID":53420,"ELEMENT_SET_NO":999,"REV_AT_EPOCH":19830,"BSTAR":9.0073698e-5,"MEAN_MOTION_DOT":1.146e-5,"MEAN_MOTION_DDOT":0},{"OBJECT_NAME":"STARLINK-4545","OBJECT_ID":"2022-097AK","EPOCH":"2026-03-07T10:16:21.119808","MEAN_MOTION":15.08845725,"ECCENTRICITY":0.00012795,"INCLINATION":53.2164,"RA_OF_ASC_NODE":124.2745,"ARG_OF_PERICENTER":87.4731,"MEAN_ANOMALY":272.6408,"EPHEMERIS_TYPE":0,"CLASSIFICATION_TYPE":"U","NORAD_CAT_ID":53421,"ELEMENT_SET_NO":999,"REV_AT_EPOCH":19828,"BSTAR":0.00016810951,"MEAN_MOTION_DOT":2.389e-5,"MEAN_MOTION_DDOT":0},{"OBJECT_NAME":"STARLINK-4546","OBJECT_ID":"2022-097AL","EPOCH":"2026-03-07T13:05:55.711680","MEAN_MOTION":15.08840976,"ECCENTRICITY":0.00012947,"INCLINATION":53.2168,"RA_OF_ASC_NODE":123.7471,"ARG_OF_PERICENTER":87.2045,"MEAN_ANOMALY":272.9096,"EPHEMERIS_TYPE":0,"CLASSIFICATION_TYPE":"U","NORAD_CAT_ID":53422,"ELEMENT_SET_NO":999,"REV_AT_EPOCH":19832,"BSTAR":8.4683655e-5,"MEAN_MOTION_DOT":1.06e-5,"MEAN_MOTION_DDOT":0},{"OBJECT_NAME":"STARLINK-4539","OBJECT_ID":"2022-097AM","EPOCH":"2026-03-07T10:12:25.929504","MEAN_MOTION":15.08838026,"ECCENTRICITY":0.0001416,"INCLINATION":53.2162,"RA_OF_ASC_NODE":124.2951,"ARG_OF_PERICENTER":79.3325,"MEAN_ANOMALY":280.7826,"EPHEMERIS_TYPE":0,"CLASSIFICATION_TYPE":"U","NORAD_CAT_ID":53423,"ELEMENT_SET_NO":999,"REV_AT_EPOCH":19828,"BSTAR":0.00017837989,"MEAN_MOTION_DOT":2.552e-5,"MEAN_MOTION_DDOT":0},{"OBJECT_NAME":"STARLINK-4532","OBJECT_ID":"2022-097AN","EPOCH":"2026-03-07T12:55:17.582880","MEAN_MOTION":15.08865386,"ECCENTRICITY":0.00010016,"INCLINATION":53.2166,"RA_OF_ASC_NODE":123.7791,"ARG_OF_PERICENTER":90.8759,"MEAN_ANOMALY":269.2348,"EPHEMERIS_TYPE":0,"CLASSIFICATION_TYPE":"U","NORAD_CAT_ID":53424,"ELEMENT_SET_NO":999,"REV_AT_EPOCH":19832,"BSTAR":0.0003090931,"MEAN_MOTION_DOT":4.638e-5,"MEAN_MOTION_DDOT":0},{"OBJECT_NAME":"STARLINK-4531","OBJECT_ID":"2022-097AP","EPOCH":"2026-03-07T13:11:13.135776","MEAN_MOTION":15.08845294,"ECCENTRICITY":0.00014616,"INCLINATION":53.2167,"RA_OF_ASC_NODE":123.7295,"ARG_OF_PERICENTER":91.9734,"MEAN_ANOMALY":268.1426,"EPHEMERIS_TYPE":0,"CLASSIFICATION_TYPE":"U","NORAD_CAT_ID":53425,"ELEMENT_SET_NO":999,"REV_AT_EPOCH":19829,"BSTAR":9.104306e-5,"MEAN_MOTION_DOT":1.161e-5,"MEAN_MOTION_DDOT":0},{"OBJECT_NAME":"STARLINK-4558","OBJECT_ID":"2022-097AQ","EPOCH":"2026-03-07T10:49:30.212832","MEAN_MOTION":15.08848518,"ECCENTRICITY":0.00014138,"INCLINATION":53.2162,"RA_OF_ASC_NODE":114.3271,"ARG_OF_PERICENTER":87.8935,"MEAN_ANOMALY":272.2219,"EPHEMERIS_TYPE":0,"CLASSIFICATION_TYPE":"U","NORAD_CAT_ID":53426,"ELEMENT_SET_NO":999,"REV_AT_EPOCH":19844,"BSTAR":0.00023898334,"MEAN_MOTION_DOT":3.518e-5,"MEAN_MOTION_DDOT":0},{"OBJECT_NAME":"STARLINK-4543","OBJECT_ID":"2022-097AT","EPOCH":"2026-03-07T10:44:11.896224","MEAN_MOTION":15.08841042,"ECCENTRICITY":0.00013947,"INCLINATION":53.2169,"RA_OF_ASC_NODE":114.3037,"ARG_OF_PERICENTER":84.7609,"MEAN_ANOMALY":275.3543,"EPHEMERIS_TYPE":0,"CLASSIFICATION_TYPE":"U","NORAD_CAT_ID":53429,"ELEMENT_SET_NO":999,"REV_AT_EPOCH":19844,"BSTAR":8.7098453e-5,"MEAN_MOTION_DOT":1.099e-5,"MEAN_MOTION_DDOT":0}]
