STARLINK-4496           
1 53412U 22097AA  26066.44644700 -.00001589  00000+0 -81864-4 0  9999
2 53412  53.2178 124.1914 0001321 111.5905 248.5228 15.08811962198318
STARLINK-4500           
1 53413U 22097AB  26066.45378546 -.00000210  00000+0  49043-5 0  9996
2 53413  53.2163 124.1577 0001270  81.3325 278.7811 15.08843682198318
STARLINK-4304           
1 53414U 22097AC  26066.57522350  .00000110  00000+0  25031-4 0  9992
2 53414  53.2170 123.6128 0001345  85.1906 274.9240 15.08838794198326
STARLINK-4479           
1 53415U 22097AD  26066.57153420  .00001793  00000+0  13072-3 0  9990
2 53415  53.2161 123.6286 0001194  93.0995 267.0134 15.08845945198309
STARLINK-4480           
1 53416U 22097AE  26066.55681538  .00001597  00000+0  11841-3 0  9999
2 53416  53.2158 123.6464 0001286  82.3144 277.7994 15.08843985198307
STARLINK-4484           
1 53417U 22097AF  26066.36914372  .00005263  00000+0  34844-3 0  9996
2 53417  53.2156 124.5376 0001235  83.8872 276.2261 15.08846774198272
STARLINK-4481           
1 53418U 22097AG  26066.46200987  .00000499  00000+0  49440-4 0  9993
2 53418  53.2160 113.6868 0001301  88.6404 271.4737 15.08839316198461
STARLINK-4476           
1 53419U 22097AH  26066.43170224  .00000729  00000+0  63891-4 0  9993
2 53419  53.2164 124.2567 0001352  92.0616 268.0531 15.08841753198282
STARLINK-4552           
1 53420U 22097AJ  26066.55314262  .00001146  00000+0  90074-4 0  9997
2 53420  53.2162 123.7129 0001031 100.4924 259.6184 15.08836135198301
STARLINK-4545           
1 53421U 22097AK  26066.42802222  .00002389  00000+0  16811-3 0  9998
2 53421  53.2164 124.2745 0001279  87.4731 272.6408 15.08845725198284
STARLINK-4546           
1 53422U 22097AL  26066.54578370  .00001060  00000+0  84684-4 0  9995
2 53422  53.2168 123.7471 0001294  87.2045 272.9096 15.08840976198326
STARLINK-4539           
1 53423U 22097AM  26066.42530011  .00002552  00000+0  17838-3 0  9996
2 53423  53.2162 124.2951 0001416  79.3325 280.7826 15.08838026198285
STARLINK-4532           
1 53424U 22097AN  26066.53839795  .00004638  00000+0  30909-3 0  9991
2 53424  53.2166 123.7791 0001001  90.8759 269.2348 15.08865386198320
STARLINK-4531           
1 53425U 22097AP  26066.54945759  .00001161  00000+0  91043-4 0  9996
2 53425  53.2167 123.7295 0001461  91.9734 268.1426 15.08845294198293
STARLINK-4558           
1 53426U 22097AQ  26066.45104413  .00003518  00000+0  23898-3 0  9991
2 53426  53.2162 114.3271 0001413  87.8935 272.2219 15.08848518198448
STARLINK-4543           
1 53429U 22097AT  26066.44735991  .00001099  00000+0  87098-4 0  9999
2 53429  53.2169 114.3037 0001394  84.7609 275.3543 15.08841042198449
